NORAD_CAT_ID,OBJECT_NAME,OBJECT_TYPE,EPOCH,MEAN_MOTION,ECCENTRICITY,INCLINATION,RA_OF_ASC_NODE,ARG_OF_PERICENTER,MEAN_ANOMALY,BSTAR,MEAN_MOTION_DOT,MEAN_MOTION_DDOT,TLE_LINE0,TLE_LINE1,TLE_LINE2,SEMIMAJOR_AXIS,PERIOD,APOGEE,PERIGEE,DECAYED
54103.0,STARLINK-5200,PAYLOAD,2024-02-15 20:14:24,15.0885517,0.00013,53.2169,93.5651,90.4592,269.6549,0.00030766,4.614e-05,0.0,0 STARLINK-5200,1 54103U 22136BE  24046.84333883  .00004614  00000-0  30766-3 0  9993,2 54103  53.2169  93.5651 0001300  90.4592 269.6549 15.08855170 73611,6917.834,95.437,540.598,538.8,0.0
54103.0,STARLINK-5200,PAYLOAD,2024-02-16 12:08:16,15.08831789,0.0001437,53.2161,90.5913,80.4656,279.6498,-0.00023311,-3.995e-05,0.0,0 STARLINK-5200,1 54103U 22136BE  24047.50574779 -.00003995  00000-0 -23311-3 0  9999,2 54103  53.2161  90.5913 0001437  80.4656 279.6498 15.08831789 74189,6917.905,95.438,540.765,538.776,0.0
54103.0,STARLINK-5200,PAYLOAD,2024-02-17 08:48:17,15.08842696,0.0001548,53.2162,86.7262,85.1927,274.9242,0.00019995,2.896e-05,0.0,0 STARLINK-5200,1 54103U 22136BE  24048.36686681  .00002896  00000-0  19995-3 0  9990,2 54103  53.2162  86.7262 0001548  85.1927 274.9242 15.08842696 74319,6917.872,95.437,540.808,538.666,0.0
54103.0,STARLINK-5200,PAYLOAD,2024-02-17 19:55:58,15.08858195,0.0001728,53.2186,84.6432,90.4103,269.7088,0.00052715,8.116e-05,0.0,0 STARLINK-5200,1 54103U 22136BE  24048.83053942  .00008116  00000-0  52715-3 0  9998,2 54103  53.2186  84.6432 0001728  90.4103 269.7088 15.08858195 74384,6917.825,95.436,540.885,538.494,0.0
54103.0,STARLINK-5200,PAYLOAD,2024-02-18 02:17:29,15.08876531,1.48e-05,53.2176,83.4533,183.9171,176.182,0.0007321,0.00011395,0.0,0 STARLINK-5200,1 54103U 22136BE  24049.09548276  .00011395  00000-0  73210-3 0  9992,2 54103  53.2176  83.4533 0000148 183.9171 176.1820 15.08876531 74424,6917.769,95.435,539.736,539.531,0.0
54103.0,STARLINK-5200,PAYLOAD,2024-02-18 08:39:03,15.08841281,0.000165,53.217,82.2642,88.6719,271.4462,-8.9102e-05,-1.706e-05,0.0,0 STARLINK-5200,1 54103U 22136BE  24049.36045685 -.00001706  00000-0 -89102-4 0  9993,2 54103  53.2170  82.2642 0001650  88.6719 271.4462 15.08841281 74463,6917.876,95.437,540.883,538.6,0.0
54103.0,STARLINK-5200,PAYLOAD,2024-02-19 08:29:50,15.08836711,0.0001513,53.2163,77.8056,89.0549,271.0616,-0.00011192,-2.069e-05,0.0,0 STARLINK-5200,1 54103U 22136BE  24050.35406041 -.00002069  00000-0 -11192-3 0  9997,2 54103  53.2163  77.8056 0001513  89.0549 271.0616 15.08836711 74142,6917.89,95.438,540.802,538.709,0.0
54103.0,STARLINK-5200,PAYLOAD,2024-02-20 01:59:05,15.08830145,0.0001243,53.2163,74.5354,87.4943,272.6192,-0.00017899,-3.135e-05,0.0,0 STARLINK-5200,1 54103U 22136BE  24051.08270681 -.00003135  00000-0 -17899-3 0  9992,2 54103  53.2163  74.5354 0001243  87.4943 272.6192 15.08830145 74722,6917.911,95.438,540.635,538.916,0.0
54103.0,STARLINK-5200,PAYLOAD,2024-02-20 08:20:38,15.08832526,0.0001372,53.2155,73.3441,92.3286,267.7863,3.246e-05,2.29e-06,0.0,0 STARLINK-5200,1 54103U 22136BE  24051.34766886  .00000229  00000-0  32460-4 0  9999,2 54103  53.2155  73.3441 0001372  92.3286 267.7863 15.08832526 74292,6917.903,95.438,540.717,538.819,0.0
54103.0,STARLINK-5200,PAYLOAD,2024-02-20 17:52:57,15.08832113,0.0001645,53.2165,71.5605,94.7689,265.3491,0.00026415,3.918e-05,0.0,0 STARLINK-5200,1 54103U 22136BE  24051.74511442  .00003918  00000-0  26415-3 0  9999,2 54103  53.2165  71.5605 0001645  94.7689 265.3491 15.08832113 74351,6917.904,95.438,540.907,538.632,0.0
54103.0,STARLINK-5200,PAYLOAD,2024-02-21 08:11:26,15.0883531,0.0001768,53.217,68.8854,97.0902,263.0291,0.00023118,3.393e-05,0.0,0 STARLINK-5200,1 54103U 22136BE  24052.34127709  .00003393  00000-0  23118-3 0  9999,2 54103  53.2170  68.8854 0001768  97.0902 263.0291 15.08835310 74919,6917.895,95.438,540.983,538.537,0.0
54103.0,STARLINK-5200,PAYLOAD,2024-02-21 17:43:45,15.08834252,0.0001759,53.2168,67.1014,99.7965,260.3226,0.00012543,1.708e-05,0.0,0 STARLINK-5200,1 54103U 22136BE  24052.73871877  .00001708  00000-0  12543-3 0  9992,2 54103  53.2168  67.1014 0001759  99.7965 260.3226 15.08834252 74501,6917.898,95.438,540.98,538.546,0.0
54103.0,STARLINK-5200,PAYLOAD,2024-02-22 08:02:13,15.08835848,0.0001801,53.2174,64.4254,101.5013,258.6181,0.00012308,1.671e-05,0.0,0 STARLINK-5200,1 54103U 22136BE  24053.33488120  .00001671  00000-0  12308-3 0  9992,2 54103  53.2174  64.4254 0001801 101.5013 258.6181 15.08835848 74599,6917.893,95.438,541.004,538.512,0.0
54103.0,STARLINK-5200,PAYLOAD,2024-02-22 17:34:32,15.08840513,0.0001797,53.2178,62.6405,93.8196,266.3002,0.00013577,1.873e-05,0.0,0 STARLINK-5200,1 54103U 22136BE  24053.73232041  .00001873  00000-0  13577-3 0  9998,2 54103  53.2178  62.6405 0001797  93.8196 266.3002 15.08840513 75123,6917.879,95.438,540.987,538.501,0.0
54103.0,STARLINK-5200,PAYLOAD,2024-02-23 07:53:00,15.08845987,0.0001774,53.2177,59.9638,90.8512,269.2684,0.00018972,2.733e-05,0.0,0 STARLINK-5200,1 54103U 22136BE  24054.32847801  .00002733  00000-0  18972-3 0  9990,2 54103  53.2177  59.9638 0001774  90.8512 269.2684 15.08845987 74748,6917.862,95.437,540.954,538.5,0.0
54103.0,STARLINK-5200,PAYLOAD,2024-02-23 17:25:19,15.08842679,0.0001638,53.2167,58.1762,83.8236,276.2943,7.2885e-05,8.72e-06,0.0,0 STARLINK-5200,1 54103U 22136BE  24054.72591943  .00000872  00000-0  72885-4 0  9993,2 54103  53.2167  58.1762 0001638  83.8236 276.2943 15.08842679 74808,6917.872,95.437,540.87,538.604,0.0
54103.0,STARLINK-5200,PAYLOAD,2024-02-24 04:33:01,15.08835279,0.0001835,53.2172,56.0994,85.5633,274.5569,7.0098e-05,8.28e-06,0.0,0 STARLINK-5200,1 54103U 22136BE  24055.18960604  .00000828  00000-0  70098-4 0  9993,2 54103  53.2172  56.0994 0001835  85.5633 274.5569 15.08835279 75340,6917.895,95.438,541.029,538.49,0.0
54103.0,STARLINK-5200,PAYLOAD,2024-02-24 07:43:48,15.08840907,0.0001648,53.216,55.5038,84.2109,275.9071,0.00011095,1.478e-05,0.0,0 STARLINK-5200,1 54103U 22136BE  24055.32208370  .00001478  00000-0  11095-3 0  9997,2 54103  53.2160  55.5038 0001648  84.2109 275.9071 15.08840907 74892,6917.878,95.437,540.883,538.603,0.0
54103.0,STARLINK-5200,PAYLOAD,2024-02-24 17:16:06,15.08846018,0.0001654,53.2159,53.7192,83.9666,276.1515,0.00018758,2.699e-05,0.0,0 STARLINK-5200,1 54103U 22136BE  24055.71952224  .00002699  00000-0  18758-3 0  9993,2 54103  53.2159  53.7192 0001654  83.9666 276.1515 15.08846018 75427,6917.862,95.437,540.871,538.583,0.0
54103.0,STARLINK-5200,PAYLOAD,2024-02-25 09:09:57,15.08858652,0.000168,53.2162,50.7447,86.5891,273.5294,0.00059805,9.248e-05,0.0,0 STARLINK-5200,1 54103U 22136BE  24056.38191776  .00009248  00000-0  59805-3 0  9999,2 54103  53.2162  50.7447 0001680  86.5891 273.5294 15.08858652 75050,6917.823,95.436,540.851,538.526,0.0
54103.0,STARLINK-5200,PAYLOAD,2024-02-25 17:06:53,15.08852289,0.0001604,53.2159,49.258,85.0435,275.0741,0.00041673,6.353e-05,0.0,0 STARLINK-5200,1 54103U 22136BE  24056.71311824  .00006353  00000-0  41673-3 0  9992,2 54103  53.2159  49.2580 0001604  85.0435 275.0741 15.08852289 75101,6917.843,95.437,540.817,538.598,0.0
54103.0,STARLINK-5200,PAYLOAD,2024-02-26 04:14:35,15.08847678,0.0001628,53.2172,47.1761,90.6703,269.4475,0.00024822,3.665e-05,0.0,0 STARLINK-5200,1 54103U 22136BE  24057.17679797  .00003665  00000-0  24822-3 0  9999,2 54103  53.2172  47.1761 0001628  90.6703 269.4475 15.08847678 75646,6917.857,95.437,540.848,538.596,0.0
54103.0,STARLINK-5200,PAYLOAD,2024-02-26 05:49:58,15.08848994,0.0001721,53.2176,46.8791,95.1105,265.0083,0.00020495,2.976e-05,0.0,0 STARLINK-5200,1 54103U 22136BE  24057.24303675  .00002976  00000-0  20495-3 0  9992,2 54103  53.2176  46.8791 0001721  95.1105 265.0083 15.08848994 75187,6917.853,95.437,540.908,538.527,0.0
54103.0,STARLINK-5200,PAYLOAD,2024-02-27 04:05:23,15.08837271,0.0001929,53.2193,42.7177,81.7402,278.3808,-3.9803e-05,-9.22e-06,0.0,0 STARLINK-5200,1 54103U 22136BE  24058.17040686 -.00000922  00000-0 -39803-4 0  9990,2 54103  53.2193  42.7177 0001929  81.7402 278.3808 15.08837271 75795,6917.889,95.438,541.088,538.419,0.0
54103.0,STARLINK-5200,PAYLOAD,2024-02-28 03:56:09,15.0884109,0.0001629,53.2194,38.2543,105.3883,254.7289,9.1786e-05,1.173e-05,0.0,0 STARLINK-5200,1 54103U 22136BE  24059.16399916  .00001173  00000-0  91786-4 0  9998,2 54103  53.2194  38.2543 0001629 105.3883 254.7289 15.08841090 75948,6917.877,95.437,540.869,538.615,0.0
54103.0,STARLINK-5200,PAYLOAD,2024-02-28 05:31:33,15.08797574,0.0002067,53.2193,37.9603,103.4153,256.707,0.00077905,0.00012118,0.0,0 STARLINK-5200,1 54103U 22136BE  24059.23024992  .00012118  00000-0  77905-3 0  9992,2 54103  53.2193  37.9603 0002067 103.4153 256.7070 15.08797574 75954,6918.01,95.44,541.305,538.445,0.0
54103.0,STARLINK-5200,PAYLOAD,2024-02-28 15:03:51,15.08842457,0.0001587,53.2184,36.175,95.7473,264.37,4.4107e-05,4.14e-06,0.0,0 STARLINK-5200,1 54103U 22136BE  24059.62767985  .00000414  00000-0  44107-4 0  9996,2 54103  53.2184  36.1750 0001587  95.7473 264.3700 15.08842457 76016,6917.873,95.437,540.836,538.64,0.0
54103.0,STARLINK-5200,PAYLOAD,2024-02-29 05:22:20,15.08830457,0.0001754,53.2194,33.5006,100.2993,259.8197,8.7057e-05,1.097e-05,0.0,0 STARLINK-5200,1 54103U 22136BE  24060.22385076  .00001097  00000-0  87057-4 0  9990,2 54103  53.2194  33.5006 0001754 100.2993 259.8197 15.08830457 76103,6917.91,95.438,540.988,538.561,0.0
54103.0,STARLINK-5200,PAYLOAD,2024-02-29 08:33:06,15.08835374,0.0001607,53.2183,32.9031,91.0819,269.0358,0.0001231,1.671e-05,0.0,0 STARLINK-5200,1 54103U 22136BE  24060.35632768  .00001671  00000-0  12310-3 0  9994,2 54103  53.2183  32.9031 0001607  91.0819 269.0358 15.08835374 75657,6917.895,95.438,540.871,538.648,0.0
54103.0,STARLINK-5200,PAYLOAD,2024-02-29 14:54:39,15.08834329,0.0001573,53.2181,31.7126,91.817,268.3002,6.6969e-05,7.78e-06,0.0,0 STARLINK-5200,1 54103U 22136BE  24060.62129003  .00000778  00000-0  66969-4 0  9994,2 54103  53.2181  31.7126 0001573  91.8170 268.3002 15.08834329 75698,6917.898,95.438,540.851,538.675,0.0
